{
  "links" : {
    "next" : "https://api.nasa.gov/neo/rest/v1/feed?start_date=2003-04-09&end_date=2003-04-09&detailed=true&api_key=t0TVs3DtDT2H8Oy2Zy8m2eVrNsAVKAexjcZXUckd",
    "prev" : "https://api.nasa.gov/neo/rest/v1/feed?start_date=2003-04-07&end_date=2003-04-07&detailed=true&api_key=t0TVs3DtDT2H8Oy2Zy8m2eVrNsAVKAexjcZXUckd",
    "self" : "https://api.nasa.gov/neo/rest/v1/feed?start_date=2003-04-08&end_date=2003-04-08&detailed=true&api_key=t0TVs3DtDT2H8Oy2Zy8m2eVrNsAVKAexjcZXUckd"
  },
  "element_count" : 8,
  "near_earth_objects" : {
    "2003-04-08" : [ {
      "links" : {
        "self" : "https://api.nasa.gov/neo/rest/v1/neo/3409432?api_key=t0TVs3DtDT2H8Oy2Zy8m2eVrNsAVKAexjcZXUckd"
      },
      "neo_reference_id" : "3409432",
      "name" : "(2008 GB110)",
      "nasa_jpl_url" : "http://ssd.jpl.nasa.gov/sbdb.cgi?sstr=3409432",
      "absolute_magnitude_h" : 19.7,
      "estimated_diameter" : {
        "kilometers" : {
          "estimated_diameter_min" : 0.3051792326,
          "estimated_diameter_max" : 0.6824015094
        },
        "meters" : {
          "estimated_diameter_min" : 305.1792325939,
          "estimated_diameter_max" : 682.4015094011
        },
        "miles" : {
          "estimated_diameter_min" : 0.1896295249,
          "estimated_diameter_max" : 0.4240245083
        },
        "feet" : {
          "estimated_diameter_min" : 1001.2442334633,
          "estimated_diameter_max" : 2238.8501681036
        }
      },
      "is_potentially_hazardous_asteroid" : false,
      "close_approach_data" : [ {
        "close_approach_date" : "2003-04-08",
        "epoch_date_close_approach" : 1049785200000,
        "relative_velocity" : {
          "kilometers_per_second" : "19.2000411795",
          "kilometers_per_hour" : "69120.148246069",
          "miles_per_hour" : "42948.5721143421"
        },
        "miss_distance" : {
          "astronomical" : "0.3307784194",
          "lunar" : "128.6728057861",
          "kilometers" : "49483748",
          "miles" : "30747776"
        },
        "orbiting_body" : "Earth"
      } ],
      "orbital_data" : {
        "orbit_id" : "32",
        "orbit_determination_date" : "2017-04-06 09:03:41",
        "orbit_uncertainty" : "0",
        "minimum_orbit_intersection" : ".317019",
        "jupiter_tisserand_invariant" : "3.739",
        "epoch_osculation" : "2458000.5",
        "eccentricity" : ".3262632764503872",
        "semi_major_axis" : "1.838009840076851",
        "inclination" : "36.11801243866999",
        "ascending_node_longitude" : "203.5887520204638",
        "orbital_period" : "910.1650925583451",
        "perihelion_distance" : "1.238334727505326",
        "perihelion_argument" : "315.0836904537169",
        "aphelion_distance" : "2.437684952648377",
        "perihelion_time" : "2458157.811789721001",
        "mean_anomaly" : "297.7780528361341",
        "mean_motion" : ".3955326379174695",
        "equinox" : "J2000"
      }
    }, {
      "links" : {
        "self" : "https://api.nasa.gov/neo/rest/v1/neo/3590077?api_key=t0TVs3DtDT2H8Oy2Zy8m2eVrNsAVKAexjcZXUckd"
      },
      "neo_reference_id" : "3590077",
      "name" : "(2011 XE)",
      "nasa_jpl_url" : "http://ssd.jpl.nasa.gov/sbdb.cgi?sstr=3590077",
      "absolute_magnitude_h" : 19.3,
      "estimated_diameter" : {
        "kilometers" : {
          "estimated_diameter_min" : 0.3669061375,
          "estimated_diameter_max" : 0.8204270649
        },
        "meters" : {
          "estimated_diameter_min" : 366.9061375314,
          "estimated_diameter_max" : 820.4270648822
        },
        "miles" : {
          "estimated_diameter_min" : 0.2279848336,
          "estimated_diameter_max" : 0.5097895857
        },
        "feet" : {
          "estimated_diameter_min" : 1203.7603322587,
          "estimated_diameter_max" : 2691.6899315481
        }
      },
      "is_potentially_hazardous_asteroid" : false,
      "close_approach_data" : [ {
        "close_approach_date" : "2003-04-08",
        "epoch_date_close_approach" : 1049785200000,
        "relative_velocity" : {
          "kilometers_per_second" : "19.8020743176",
          "kilometers_per_hour" : "71287.4675435033",
          "miles_per_hour" : "44295.2600411285"
        },
        "miss_distance" : {
          "astronomical" : "0.4742026591",
          "lunar" : "184.4648284912",
          "kilometers" : "70939712",
          "miles" : "44079892"
        },
        "orbiting_body" : "Earth"
      } ],
      "orbital_data" : {
        "orbit_id" : "34",
        "orbit_determination_date" : "2017-04-06 08:51:47",
        "orbit_uncertainty" : "1",
        "minimum_orbit_intersection" : ".0528973",
        "jupiter_tisserand_invariant" : "7.282",
        "epoch_osculation" : "2458000.5",
        "eccentricity" : ".46340396490327",
        "semi_major_axis" : ".7838064253255399",
        "inclination" : "20.72734913356539",
        "ascending_node_longitude" : "221.2834409433057",
        "orbital_period" : "253.4612987325434",
        "perihelion_distance" : ".4205874201130259",
        "perihelion_argument" : "46.58021373930708",
        "aphelion_distance" : "1.147025430538054",
        "perihelion_time" : "2458085.605972614316",
        "mean_anomaly" : "239.1209928523099",
        "mean_motion" : "1.420335182531666",
        "equinox" : "J2000"
      }
    }, {
      "links" : {
        "self" : "https://api.nasa.gov/neo/rest/v1/neo/3591267?api_key=t0TVs3DtDT2H8Oy2Zy8m2eVrNsAVKAexjcZXUckd"
      },
      "neo_reference_id" : "3591267",
      "name" : "(2011 XS2)",
      "nasa_jpl_url" : "http://ssd.jpl.nasa.gov/sbdb.cgi?sstr=3591267",
      "absolute_magnitude_h" : 18.2,
      "estimated_diameter" : {
        "kilometers" : {
          "estimated_diameter_min" : 0.6089126221,
          "estimated_diameter_max" : 1.3615700154
        },
        "meters" : {
          "estimated_diameter_min" : 608.9126221057,
          "estimated_diameter_max" : 1361.5700153859
        },
        "miles" : {
          "estimated_diameter_min" : 0.3783606449,
          "estimated_diameter_max" : 0.846040122
        },
        "feet" : {
          "estimated_diameter_min" : 1997.7448871092,
          "estimated_diameter_max" : 4467.0933692788
        }
      },
      "is_potentially_hazardous_asteroid" : false,
      "close_approach_data" : [ {
        "close_approach_date" : "2003-04-08",
        "epoch_date_close_approach" : 1049785200000,
        "relative_velocity" : {
          "kilometers_per_second" : "41.0152049136",
          "kilometers_per_hour" : "147654.7376889377",
          "miles_per_hour" : "91746.911871218"
        },
        "miss_distance" : {
          "astronomical" : "0.431734345",
          "lunar" : "167.9446563721",
          "kilometers" : "64586540",
          "miles" : "40132216"
        },
        "orbiting_body" : "Earth"
      } ],
      "orbital_data" : {
        "orbit_id" : "23",
        "orbit_determination_date" : "2017-04-06 08:51:46",
        "orbit_uncertainty" : "1",
        "minimum_orbit_intersection" : ".0871696",
        "jupiter_tisserand_invariant" : "3.819",
        "epoch_osculation" : "2458000.5",
        "eccentricity" : ".740701815348031",
        "semi_major_axis" : "1.640879510713345",
        "inclination" : "30.80286135532171",
        "ascending_node_longitude" : "225.7954969738754",
        "orbital_period" : "767.73875667426",
        "perihelion_distance" : ".4254770783605815",
        "perihelion_argument" : "99.50423188128698",
        "aphelion_distance" : "2.856281943066109",
        "perihelion_time" : "2458149.852512368446",
        "mean_anomaly" : "289.9671874251192",
        "mean_motion" : ".4689095045292113",
        "equinox" : "J2000"
      }
    } ]
  }
}